SatCatId,ObjectName,LaunchYear,OrbitalPeriod,LaunchMass,StatusCode,Inclination,Status,UcsData,OrbitClassEstimated,LaunchSiteCountry,Owner,UseType,Purpose,LaunchVehicleClass,TLE1,TLE2,MeanMotion,Eccentricity,OrbitClass
48975,ONEWEB-0257,2021,109.37,148.0,+,87.91,Active,1,LEO,Russia,UK,Commercial,Communications,Soyuz,1 48975U 21060J   24131.45747207  .00000078  00000+0  17049-3 0  9997,2 48975  87.9144  21.5872 0001663  83.5724 276.5596 13.16592329138562,13.16592329,0.0001663,LEO
48976,ONEWEB-0258,2021,109.37,148.0,+,87.91,Active,1,LEO,Russia,UK,Commercial,Communications,Soyuz,1 48976U 21060K   24131.45905447  .00000113  00000+0  26129-3 0  9999,2 48976  87.9145  21.6155 0001865  80.7656 279.3686 13.16592788138577,13.16592788,0.0001865,LEO
48977,ONEWEB-0259,2021,109.37,148.0,+,87.91,Active,1,LEO,Russia,UK,Commercial,Communications,Soyuz,1 48977U 21060L   24131.45272160  .00000149  00000+0  35637-3 0  9992,2 48977  87.9143  21.6017 0002076  84.2457 275.8910 13.16592778138600,13.16592778,0.0002076,LEO
48978,ONEWEB-0260,2021,109.37,148.0,+,87.91,Active,1,LEO,Russia,UK,Commercial,Communications,Soyuz,1 48978U 21060M   24131.44398788  .00000248  00000+0  61582-3 0  9995,2 48978  87.9142  21.6319 0001126  83.0729 277.0530 13.16598696138583,13.16598696,0.0001126,LEO
48979,ONEWEB-0261,2021,109.37,148.0,+,87.91,Active,1,LEO,Russia,UK,Commercial,Communications,Soyuz,1 48979U 21060N   24131.41313379 -.00000008  00000+0 -53675-4 0  9997,2 48979  87.9145  21.6308 0001804 101.5323 258.6011 13.16592185138636,13.16592185,0.0001804,LEO
48980,ONEWEB-0262,2021,109.37,148.0,+,87.91,Active,1,LEO,Russia,UK,Commercial,Communications,Soyuz,1 48980U 21060P   24131.39414583  .00000154  00000+0  37042-3 0  9994,2 48980  87.9143  21.5997 0002229  91.0019 269.1367 13.16595231138597,13.16595231,0.0002229,LEO
48981,ONEWEB-0263,2021,109.37,148.0,+,87.91,Active,1,LEO,Russia,UK,Commercial,Communications,Soyuz,1 48981U 21060Q   24131.12181058  .00000042  00000+0  76101-4 0  9990,2 48981  87.9147  21.6690 0001959  96.3342 263.8012 13.16596867138526,13.16596867,0.0001959,LEO
48982,ONEWEB-0264,2021,109.37,148.0,+,87.91,Active,1,LEO,Russia,UK,Commercial,Communications,Soyuz,1 48982U 21060R   24131.38701494  .00000099  00000+0  22592-3 0  9997,2 48982  87.9146  21.6280 0001773  82.7063 277.4269 13.16593212138564,13.16593212,0.0001773,LEO
48984,ONEWEB-0266,2021,109.37,148.0,+,87.91,Active,1,LEO,Russia,UK,Commercial,Communications,Soyuz,1 48984U 21060T   24131.40839440 -.00000119  00000+0 -34605-3 0  9998,2 48984  87.9146  21.6029 0001949  79.2859 280.8491 13.16592988138559,13.16592988,0.0001949,LEO
48985,ONEWEB-0267,2021,109.37,148.0,+,87.91,Active,1,LEO,Russia,UK,Commercial,Communications,Soyuz,1 48985U 21060U   24131.41946696 -.00000341  00000+0 -92487-3 0  9991,2 48985  87.9142  21.6016 0001664  93.9572 266.1750 13.16593910138563,13.1659391,0.0001664,LEO
48986,ONEWEB-0268,2021,109.37,148.0,+,87.91,Active,1,LEO,Russia,UK,Commercial,Communications,Soyuz,1 48986U 21060V   24131.38780413  .00000076  00000+0  16580-3 0  9994,2 48986  87.9145  21.6138 0001662  82.8062 277.3258 13.16593764138824,13.16593764,0.0001662,LEO
48987,ONEWEB-0269,2021,109.37,148.0,+,87.91,Active,1,LEO,Russia,UK,Commercial,Communications,Soyuz,1 48987U 21060W   24131.44479460  .00000312  00000+0  78260-3 0  9995,2 48987  87.9147  21.6271 0001731  76.7451 283.3873 13.16594696138607,13.16594696,0.0001731,LEO
48988,ONEWEB-0270,2021,109.37,148.0,+,87.91,Active,1,LEO,Russia,UK,Commercial,Communications,Soyuz,1 48988U 21060X   24131.38621834  .00000168  00000+0  40513-3 0  9992,2 48988  87.9141  21.6229 0002105  96.8529 263.2842 13.16597549138636,13.16597549,0.0002105,LEO
48989,ONEWEB-0271,2021,109.37,148.0,+,87.91,Active,1,LEO,Russia,UK,Commercial,Communications,Soyuz,1 48989U 21060Y   24131.14557170  .00000118  00000+0  27446-3 0  9993,2 48989  87.9144  21.6469 0001820  94.8994 265.2345 13.16597799138607,13.16597799,0.000182,LEO
48990,ONEWEB-0272,2021,109.37,148.0,+,87.91,Active,1,LEO,Russia,UK,Commercial,Communications,Soyuz,1 48990U 21060Z   24131.62371368  .00000084  00000+0  18625-3 0  9992,2 48990  87.9146  21.5800 0001741  89.7413 270.3918 13.16592570138616,13.1659257,0.0001741,LEO
48991,ONEWEB-0273,2021,109.37,148.0,+,87.91,Active,1,LEO,Russia,UK,Commercial,Communications,Soyuz,1 48991U 21060AA  24131.41788918 -.00000011  00000+0 -62286-4 0  9998,2 48991  87.9145  21.6081 0001944  85.5055 274.6298 13.16597652138567,13.16597652,0.0001944,LEO
48992,ONEWEB-0274,2021,109.37,148.0,+,87.91,Active,1,LEO,Russia,UK,Commercial,Communications,Soyuz,1 48992U 21060AB  24131.44321772  .00000111  00000+0  25608-3 0  9998,2 48992  87.9148  21.6142 0001232  86.8385 273.2887 13.16597048138602,13.16597048,0.0001232,LEO
48993,ONEWEB-0275,2021,109.37,148.0,+,87.91,Active,1,LEO,Russia,UK,Commercial,Communications,Soyuz,1 48993U 21060AC  24131.43214402  .00000062  00000+0  12950-3 0  9990,2 48993  87.9142  21.6016 0001874  86.6419 273.4926 13.16593622138537,13.16593622,0.0001874,LEO
48994,ONEWEB-0276,2021,109.37,148.0,+,87.91,Active,1,LEO,Russia,UK,Commercial,Communications,Soyuz,1 48994U 21060AD  24131.38939076  .00000052  00000+0  10302-3 0  9994,2 48994  87.9143  21.6058 0001980  89.7898 270.3460 13.16592996138541,13.16592996,0.000198,LEO
48995,ONEWEB-0277,2021,109.37,148.0,+,87.91,Active,1,LEO,Russia,UK,Commercial,Communications,Soyuz,1 48995U 21060AE  24131.40205351  .00000054  00000+0  10885-3 0  9998,2 48995  87.9143  21.6416 0001918  98.7553 261.3795 13.16592983138535,13.16592983,0.0001918,LEO
48996,ONEWEB-0278,2021,109.37,148.0,+,87.91,Active,1,LEO,Russia,UK,Commercial,Communications,Soyuz,1 48996U 21060AF  24131.62055301  .00000051  00000+0  99844-4 0  9991,2 48996  87.9143  21.5568 0002094  75.5097 284.6267 13.16594976138698,13.16594976,0.0002094,LEO
48997,ONEWEB-0279,2021,109.37,148.0,+,87.91,Active,1,LEO,Russia,UK,Commercial,Communications,Soyuz,1 48997U 21060AG  24131.40047024  .00000098  00000+0  22347-3 0  9995,2 48997  87.9143  21.5983 0001823  95.6637 264.4702 13.16593250138595,13.1659325,0.0001823,LEO
48998,ONEWEB-0280,2021,109.37,148.0,+,87.91,Active,1,LEO,Russia,UK,Commercial,Communications,Soyuz,1 48998U 21060AH  24131.41471746  .00000043  00000+0  79746-4 0  9995,2 48998  87.9143  21.5967 0002075  83.9811 276.1557 13.16592364138539,13.16592364,0.0002075,LEO
48999,ONEWEB-0281,2021,109.37,148.0,+,87.91,Active,1,LEO,Russia,UK,Commercial,Communications,Soyuz,1 48999U 21060AJ  24131.42106185 -.00000016  00000+0 -74591-4 0  9994,2 48999  87.9141  21.5977 0001621  78.0311 282.1001 13.16593530138600,13.1659353,0.0001621,LEO
49000,ONEWEB-0282,2021,109.37,148.0,+,87.91,Active,1,LEO,Russia,UK,Commercial,Communications,Soyuz,1 49000U 21060AK  24131.45112677  .00000133  00000+0  31460-3 0  9999,2 49000  87.9143  21.6083 0002037  90.6633 269.4731 13.16597131138580,13.16597131,0.0002037,LEO
49001,ONEWEB-0283,2021,109.37,148.0,+,87.91,Active,1,LEO,Russia,UK,Commercial,Communications,Soyuz,1 49001U 21060AL  24131.44004883  .00000077  00000+0  16832-3 0  9991,2 49001  87.9142  21.6174 0001762  90.5512 269.5821 13.16591905138595,13.16591905,0.0001762,LEO
49002,ONEWEB-0284,2021,109.37,148.0,+,87.91,Active,1,LEO,Russia,UK,Commercial,Communications,Soyuz,1 49002U 21060AM  24131.43372187  .00000020  00000+0  17621-4 0  9992,2 49002  87.9134  21.6045 0002039  85.8756 274.2608 13.16592926138577,13.16592926,0.0002039,LEO
49003,JILIN-1 KUANFU-01B,2021,95.24,95.0,+,97.59,Active,1,LEO,PRC,China,Commercial,Earth Observation,Long March,1 49003U 21061A   24131.58151305  .00007404  00000+0  43334-3 0  9999,2 49003  97.5942 205.4663 0023169 253.0587 106.8103 15.11906025157407,15.11906025,0.0023169,LEO
49004,JILIN-1 GAOFEN 3D01,2021,94.27,40.0,+,97.4,Active,1,LEO,PRC,China,Commercial,Earth Observation,Long March,1 49004U 21061B   24131.59774851  .00025794  00000+0  95775-3 0  9996,2 49004  97.3992 196.5901 0007390 270.7014  89.3378 15.27524844157877,15.27524844,0.000739,LEO
49005,JILIN-1 GAOFEN 3D02,2021,94.51,40.0,+,97.4,Active,1,LEO,PRC,China,Commercial,Earth Observation,Long March,1 49005U 21061C   24131.52567825  .00020543  00000+0  85813-3 0  9990,2 49005  97.3987 193.8923 0003746  22.8630 337.2774 15.23652103157698,15.23652103,0.0003746,LEO
49006,JILIN-1 GAOFEN 3D03,2021,94.5,40.0,+,97.4,Active,1,LEO,PRC,China,Commercial,Earth Observation,Long March,1 49006U 21061D   24131.60917438  .00020809  00000+0  86430-3 0  9990,2 49006  97.3974 193.9304 0009026 332.9998  27.0769 15.23812578157702,15.23812578,0.0009026,LEO
49007,XINGSHIDAI 10,2021,94.5,10.0,+,97.4,Active,1,LEO,PRC,China,Commercial,Earth Observation,Long March,1 49007U 21061E   24131.60068355  .00020146  00000+0  83862-3 0  9996,2 49007  97.3980 193.8656 0009971 318.7061  41.3422 15.23736132157695,15.23736132,0.0009971,LEO
49008,FENGYUN 3E,2021,101.43,2450.0,+,98.73,Active,1,LEO,PRC,China,Government,Earth Observation,Long March,1 49008U 21062A   24131.57317066  .00000074  00000+0  55701-4 0  9990,2 49008  98.7326 133.3577 0002493 119.1253 241.0173 14.19749195147658,14.19749195,0.0002493,LEO
49011,TIANLIAN 1-05,2021,1436.1,2200.0,+,0.4,Active,1,GSO,PRC,China,Government,Communications,Long March,1 49011U 21063A   24130.86459427  .00000106  00000+0  00000+0 0  9997,2 49011   0.4004 281.9046 0001839 128.7536 145.5409  1.00271366 10373,1.00271366,0.0001839,GEO
49018,NINGXIA-1 6,2021,102.25,100.0,+,45.0,Active,1,LEO,PRC,China,Commercial,Earth Observation,Long March,1 49018U 21064A   24131.48195891  .00000047  00000+0  10417-3 0  9997,2 49018  45.0002  94.7585 0007169 164.8259 195.2793 14.08259769145985,14.08259769,0.0007169,LEO
49019,NINGXIA-1 7,2021,102.25,100.0,+,45.0,Active,1,LEO,PRC,China,Commercial,Earth Observation,Long March,1 49019U 21064B   24131.46727741  .00000036  00000+0  97286-4 0  9999,2 49019  45.0028  94.8908 0006436 175.1415 184.9485 14.08250338146010,14.08250338,0.0006436,LEO
